PRATHAM
1 41783U 16059A   19217.74842966 +.00000020 +00000-0 +13152-4 0  9998
2 41783 098.0641 276.2609 0032522 231.3933 128.4356 14.63002306152577
PRISMA (TANGO)
1 36827U 10028F   19218.43122860  .00000019  00000-0  19232-4 0  9995
2 36827  98.5257  33.6208 0042066 213.1656 146.6895 14.42405483472858
PROMETHEUS 2-7
1 44374U 19037K   19218.02852128 -.00000336  00000-0  00000+0 0  9993
2 44374  45.0150  79.6662 0007824 137.8756 222.2844 15.37458271  5634
RADIO ROSTO
1 23439U 94085A   19217.94108064 -.00000049 +00000-0 -18613-3 0  9996
2 23439 064.8179 038.0979 0146125 103.8513 257.8716 11.27568709013336
RADIX
1 43550U 98067NY  19218.23587759  .00033972  00000-0  30709-3 0  9990
2 43550  51.6348  91.1966 0003283 349.1403  10.9521 15.67767283 60778
RAINCUBE
1 43548U 98067NW  19217.90771140 +.00012894 +00000-0 +14921-3 0  9997
2 43548 051.6366 099.5541 0004649 322.8485 037.2187 15.62226244060616
RED-EYE
1 44364U 98067QJ  19217.96143245 +.00002099 +00000-0 +42501-4 0  9991
2 44364 051.6440 114.1824 0006941 225.6327 134.4095 15.51558287006167
SAPPHIRE
1 39088U 13009C   19218.16856218 -.00000043  00000-0  81027-7 0  9992
2 39088  98.4953  60.5182 0012125 139.8036 220.4047 14.34194709337162
SAUDISAT 1C
1 27607U 02058C   19218.54770223 -.00000047  00000-0  14339-4 0  9994
2 27607  64.5539 260.2259 0079515 247.1630 112.1061 14.75562909894249
SENTINEL 3B
1 43437U 18039A   19218.18626464 -.00000007  00000-0  15343-4 0  9998
2 43437  98.6270 284.3963 0001525  80.5119 279.6234 14.26737160 66649
SIRIUS 3
1 25492U 98056B   19217.89064655 -.00000018 +00000-0 +00000-0 0  9993
2 25492 007.6367 049.1606 0003777 347.0514 323.9583 00.99032127076286
SIRIUSSAT-1
1 43595U 98067PG  19218.21934468  .00016769  00000-0  19467-3 0  9993
2 43595  51.6360  99.3702 0002545 297.4283  62.6452 15.61895763 55422
SIRIUSSAT-2
1 43596U 98067PH  19217.93470050 +.00013595 +00000-0 +16006-3 0  9994
2 43596 051.6371 101.2588 0003051 295.9878 064.0801 15.61724465055374
SKYNET 5D
1 39034U 12075A   19217.85036971 +.00000080 +00000-0 +00000-0 0  9991
2 39034 000.0749 351.3247 0003633 148.2391 173.4135 01.00269632024020
SOCRATES
1 39768U 14029C   19204.58435010  .00000095  00000-0  17656-4 0  9994
2 39768  97.8679 301.0291 0006631 353.8123   6.3008 14.84361710279716
SOLRAD 1 (GREB)
1    46U 60007B   19218.19033007  .00000022  00000-0  27422-4 0  9992
2    46  66.6895 181.0608 0209578   4.7954 355.5093 14.49236308 93277
SPEKTR R
1 37755U 11037A   18264.20000000 +.00000083 +00000-0 +00000-0 0  9993
2 37755 051.5880 113.3680 8331057 181.9940 359.9340 00.11829941003008
SPIRALE B
1 33752U 09008D   19217.84780952  .00001388  00000-0  36755-3 0  9999
2 33752   2.1351 318.3323 6918170 118.2622 326.9889  2.74920142 96079
SPOOQY1
1 44332U 98067QH  19218.83556851  .00007749  00000-0  13151-3 0  9999
2 44332  51.6407 109.5308 0005290 269.3169  90.7215 15.52510169  7847
STARLINK
1 44235U 19029A   19218.06310818 -.00000221  00000-0  39490-5 0  9993
2 44235  52.9983 200.2466 0001028 211.7916 148.3010 15.05484079 12423
STARLINK
1 44259U 19029AA  19218.32965308  .00001187  00000-0  38835-4 0  9990
2 44259  53.0026 183.9431 0001023  25.5644 334.5410 15.40313063 11416
TACSAT 4
1 37818U 11052A   19217.85689778 +.00000038 +00000-0 +10561-3 0  9991
2 37818 063.2043 340.2198 4589635 221.1741 340.9908 06.02817623172831
TECHEDSAT 8
1 44032U 98067PY  19217.95480861 +.00031310 +00000-0 +36691-3 0  9990
2 44032 051.6376 106.6422 0002629 341.3402 018.7494 15.61232289029081
TEMPEST-D
1 43547U 98067NV  19218.15064823  .00003976  00000-0  57899-4 0  9990
2 43547  51.6392 103.4479 0005011 311.9815  48.0750 15.58336034 60136
TERRA
1 25994U 99068A   19218.42794425  .00000029  00000-0  16409-4 0  9994
2 25994  98.2029 292.2364 0000860  93.5022 266.6274 14.57114900 44298
THEMIS A
1 30580U 07004A   19217.02542840 -.00000107  00000-0  00000+0 0  9990
2 30580   9.9315  84.2691 8389153 319.2400   2.0623  0.87837354 43916
THEMIS D
1 30797U 07004D   19216.82745360 -.00000165  00000-0  00000+0 0  9993
2 30797   8.7793  48.6407 8594091 359.8653   0.0463  0.71854505 43753
TIROS 1
1    29U 60002B   19218.78185891 -.00000162  00000-0  69475-5 0  9993
2    29  48.3809 358.3206 0024270 321.0153  38.9009 14.74312411172076
UBAKUSAT
1 43466U 98067NP  19218.83298351  .00024155  00000-0  22192-3 0  9999
2 43466  51.6368  84.7426 0000222  56.3349 303.7669 15.67565433 70625
UNITE
1 44031U 98067PX  19218.13502419  .00007552  00000-0  11287-3 0  9999
2 44031  51.6389 109.3477 0002874 335.1418  24.9434 15.56106825 29087
VANGUARD 2
1    11U 59001A   19217.95899102 -.00000047 +00000-0 -44949-4 0  9997
2    11 032.8767 163.5878 1468600 264.8417 078.3502 11.85612759237408
VANGUARD 3
1    20U 59007A   19218.43041333  .00000156  00000-0  68907-4 0  9991
2    20  33.3398 227.8768 1666999  30.3501 338.3838 11.55670096194067
XMM
1 25989U 99066A   19219.44649959 -.00000166  00000-0  00000+0 0  9998
2 25989  71.0101 330.6692 7550129  94.7791   0.5796  0.50136351 24805
YAOGAN 27
1 40878U 15040A   19218.71794983 -.00000044  00000-0  00000+0 0  9994
2 40878 100.2845 271.6610 0008168 224.2285 135.8183 13.15962450189485
